{"type": "FeatureCollection", "features": [ {"type": "Feature", "properties": {"norad_id": 66948, "name": "STARLINK-36116", "group": "last-30-days", "lat": 30.301966688528072, "lon": 163.60799681705794, "alt_km": 340.5033591533265, "timestamp": "2025-12-20T20:38:43.174651+00:00", "meta": {"OBJECT_NAME": "STARLINK-36116", "OBJECT_ID": "2025-286Z", "EPOCH": "2025-12-20T14:00:03.000384", "MEAN_MOTION": 15.75944498, "ECCENTRICITY": 5.362e-05, "INCLINATION": 53.156, "RA_OF_ASC_NODE": 10.9746, "ARG_OF_PERICENTER": 75.488, "MEAN_ANOMALY": 294.1518, "EPHEMERIS_TYPE": 0, "CLASSIFICATION_TYPE": "U", "NORAD_CAT_ID": 66948, "ELEMENT_SET_NO": 999, "REV_AT_EPOCH": 325, "BSTAR": -0.010151732, "MEAN_MOTION_DOT": -0.01422183, "MEAN_MOTION_DDOT": 0}, "tle": {"line1": "1 66948U 25286Z   25354.58336806 -.01422183  00000+0 -10152-1 0  9996", "line2": "2 66948  53.1560  10.9746 0000536  75.4880 294.1518 15.75944498  3254"}}, "geometry": {"type": "Point", "coordinates": [163.60799681705794, 30.301966688528072]}}, {"type": "Feature", "properties": {"norad_id": 66949, "name": "STARLINK-36096", "group": "last-30-days", "lat": 27.453490937424103, "lon": 166.66240267261935, "alt_km": 341.0858475513742, "timestamp": "2025-12-20T20:38:43.174663+00:00", "meta": {"OBJECT_NAME": "STARLINK-36096", "OBJECT_ID": "2025-286AA", "EPOCH": "2025-12-20T14:00:03.000384", "MEAN_MOTION": 15.75897149, "ECCENTRICITY": 8.289e-05, "INCLINATION": 53.1562, "RA_OF_ASC_NODE": 10.9669, "ARG_OF_PERICENTER": 80.5638, "MEAN_ANOMALY": 293.0429, "EPHEMERIS_TYPE": 0, "CLASSIFICATION_TYPE": "U", "NORAD_CAT_ID": 66949, "ELEMENT_SET_NO": 999, "REV_AT_EPOCH": 325, "BSTAR": -0.010539594, "MEAN_MOTION_DOT": -0.01467504, "MEAN_MOTION_DDOT": 0}, "tle": {"line1": "1 66949U 25286AA  25354.58336806 -.01467504  00000+0 -10540-1 0  9994", "line2": "2 66949  53.1562  10.9669 0000828  80.5638 293.0429 15.75897149  3252"}}, "geometry": {"type": "Point", "coordinates": [166.66240267261935, 27.453490937424103]}}, {"type": "Feature", "properties": {"norad_id": 66950, "name": "STARLINK-36111", "group": "last-30-days", "lat": 24.53310125904364, "lon": 169.56804930232033, "alt_km": 341.9573533735138, "timestamp": "2025-12-20T20:38:43.174688+00:00", "meta": {"OBJECT_NAME": "STARLINK-36111", "OBJECT_ID": "2025-286AB", "EPOCH": "2025-12-20T14:00:03.000384", "MEAN_MOTION": 15.75844263, "ECCENTRICITY": 0.00010296, "INCLINATION": 53.156, "RA_OF_ASC_NODE": 10.9586, "ARG_OF_PERICENTER": 66.7349, "MEAN_ANOMALY": 310.8697, "EPHEMERIS_TYPE": 0, "CLASSIFICATION_TYPE": "U", "NORAD_CAT_ID": 66950, "ELEMENT_SET_NO": 999, "REV_AT_EPOCH": 325, "BSTAR": -0.01127066, "MEAN_MOTION_DOT": -0.01553317, "MEAN_MOTION_DDOT": 0}, "tle": {"line1": "1 66950U 25286AB  25354.58336806 -.01553317  00000+0 -11271-1 0  9996", "line2": "2 66950  53.1560  10.9586 0001029  66.7349 310.8697 15.75844263  3253"}}, "geometry": {"type": "Point", "coordinates": [169.56804930232033, 24.53310125904364]}}, {"type": "Feature", "properties": {"norad_id": 66951, "name": "STARLINK-35999", "group": "last-30-days", "lat": 23.016735040887962, "lon": 171.00223970139427, "alt_km": 342.24855556198327, "timestamp": "2025-12-20T20:38:43.174699+00:00", "meta": {"OBJECT_NAME": "STARLINK-35999", "OBJECT_ID": "2025-286AC", "EPOCH": "2025-12-20T14:00:03.000384", "MEAN_MOTION": 15.7593174, "ECCENTRICITY": 0.00010308, "INCLINATION": 53.1558, "RA_OF_ASC_NODE": 10.9543, "ARG_OF_PERICENTER": 79.9579, "MEAN_ANOMALY": 299.6383, "EPHEMERIS_TYPE": 0, "CLASSIFICATION_TYPE": "U", "NORAD_CAT_ID": 66951, "ELEMENT_SET_NO": 999, "REV_AT_EPOCH": 325, "BSTAR": -0.012947366, "MEAN_MOTION_DOT": -0.01795863, "MEAN_MOTION_DDOT": 0}, "tle": {"line1": "1 66951U 25286AC  25354.58336806 -.01795863  00000+0 -12947-1 0  9992", "line2": "2 66951  53.1558  10.9543 0001030  79.9579 299.6383 15.75931740  3250"}}, "geometry": {"type": "Point", "coordinates": [171.00223970139427, 23.016735040887962]}}, {"type": "Feature", "properties": {"norad_id": 66952, "name": "STARLINK-36122", "group": "last-30-days", "lat": 25.996902609187522, "lon": 168.1370573131229, "alt_km": 341.7014842741992, "timestamp": "2025-12-20T20:38:43.174710+00:00", "meta": {"OBJECT_NAME": "STARLINK-36122", "OBJECT_ID": "2025-286AD", "EPOCH": "2025-12-20T14:00:03.000384", "MEAN_MOTION": 15.75866988, "ECCENTRICITY": 8.95e-05, "INCLINATION": 53.1562, "RA_OF_ASC_NODE": 10.9627, "ARG_OF_PERICENTER": 65.3593, "MEAN_ANOMALY": 310.255, "EPHEMERIS_TYPE": 0, "CLASSIFICATION_TYPE": "U", "NORAD_CAT_ID": 66952, "ELEMENT_SET_NO": 999, "REV_AT_EPOCH": 325, "BSTAR": -0.010915877, "MEAN_MOTION_DOT": -0.01511712, "MEAN_MOTION_DDOT": 0}, "tle": {"line1": "1 66952U 25286AD  25354.58336806 -.01511712  00000+0 -10916-1 0  9996", "line2": "2 66952  53.1562  10.9627 0000895  65.3593 310.2550 15.75866988  3259"}}, "geometry": {"type": "Point", "coordinates": [168.1370573131229, 25.996902609187522]}}, {"type": "Feature", "properties": {"norad_id": 66953, "name": "HULIANWANG DIGUI-114", "group": "last-30-days", "lat": -13.655199325130214, "lon": 164.0538278670765, "alt_km": 1010.8937132466353, "timestamp": "2025-12-20T20:38:43.174720+00:00", "meta": {"OBJECT_NAME": "HULIANWANG DIGUI-114", "OBJECT_ID": "2025-287A", "EPOCH": "2025-12-20T09:09:14.655168", "MEAN_MOTION": 13.66161866, "ECCENTRICITY": 0.00096738, "INCLINATION": 86.496, "RA_OF_ASC_NODE": 343.3747, "ARG_OF_PERICENTER": 185.0352, "MEAN_ANOMALY": 175.071, "EPHEMERIS_TYPE": 0, "CLASSIFICATION_TYPE": "U", "NORAD_CAT_ID": 66953, "ELEMENT_SET_NO": 999, "REV_AT_EPOCH": 157, "BSTAR": 3.033618e-06, "MEAN_MOTION_DOT": 1.9e-07, "MEAN_MOTION_DDOT": 0}, "tle": {"line1": "1 66953U 25287A   25354.38141962  .00000019  00000+0  30336-5 0  9995", "line2": "2 66953  86.4960 343.3747 0009673 185.0352 175.0710 13.66161866  1572"}}, "geometry": {"type": "Point", "coordinates": [164.0538278670765, -13.655199325130214]}}, {"type": "Feature", "properties": {"norad_id": 66954, "name": "HULIANWANG DIGUI-115", "group": "last-30-days", "lat": -19.878753465403594, "lon": 164.47108725933015, "alt_km": 1010.2887973282486, "timestamp": "2025-12-20T20:38:43.174731+00:00", "meta": {"OBJECT_NAME": "HULIANWANG DIGUI-115", "OBJECT_ID": "2025-287B", "EPOCH": "2025-12-20T14:23:56.755680", "MEAN_MOTION": 13.66603826, "ECCENTRICITY": 0.00094984, "INCLINATION": 86.4975, "RA_OF_ASC_NODE": 343.2967, "ARG_OF_PERICENTER": 182.0064, "MEAN_ANOMALY": 178.1058, "EPHEMERIS_TYPE": 0, "CLASSIFICATION_TYPE": "U", "NORAD_CAT_ID": 66954, "ELEMENT_SET_NO": 999, "REV_AT_EPOCH": 160, "BSTAR": -9.79328e-07, "MEAN_MOTION_DOT": 1.6e-07, "MEAN_MOTION_DDOT": 0}, "tle": {"line1": "1 66954U 25287B   25354.59996245  .00000016  00000+0 -97933-6 0  9996", "line2": "2 66954  86.4975 343.2967 0009498 182.0064 178.1058 13.66603826  1604"}}, "geometry": {"type": "Point", "coordinates": [164.47108725933015, -19.878753465403594]}}, {"type": "Feature", "properties": {"norad_id": 66955, "name": "HULIANWANG DIGUI-116", "group": "last-30-days", "lat": -26.60408245626707, "lon": 164.9482123296671, "alt_km": 1010.6819417768656, "timestamp": "2025-12-20T20:38:43.174741+00:00", "meta": {"OBJECT_NAME": "HULIANWANG DIGUI-116", "OBJECT_ID": "2025-287C", "EPOCH": "2025-12-20T14:22:05.512224", "MEAN_MOTION": 13.67009346, "ECCENTRICITY": 0.00086399, "INCLINATION": 86.4919, "RA_OF_ASC_NODE": 343.2828, "ARG_OF_PERICENTER": 174.3089, "MEAN_ANOMALY": 185.8169, "EPHEMERIS_TYPE": 0, "CLASSIFICATION_TYPE": "U", "NORAD_CAT_ID": 66955, "ELEMENT_SET_NO": 999, "REV_AT_EPOCH": 160, "BSTAR": 0.0001240372, "MEAN_MOTION_DOT": 1.2e-06, "MEAN_MOTION_DDOT": 0}, "tle": {"line1": "1 66955U 25287C   25354.59867491  .00000120  00000+0  12404-3 0  9999", "line2": "2 66955  86.4919 343.2828 0008639 174.3089 185.8169 13.67009346  1602"}}, "geometry": {"type": "Point", "coordinates": [164.9482123296671, -26.60408245626707]}}, {"type": "Feature", "properties": {"norad_id": 66956, "name": "HULIANWANG DIGUI-117", "group": "last-30-days", "lat": -36.24041529753311, "lon": 165.77138407457485, "alt_km": 1010.0148156028863, "timestamp": "2025-12-20T20:38:43.174751+00:00", "meta": {"OBJECT_NAME": "HULIANWANG DIGUI-117", "OBJECT_ID": "2025-287D", "EPOCH": "2025-12-18T14:55:12.079776", "MEAN_MOTION": 13.67770338, "ECCENTRICITY": 0.00076767, "INCLINATION": 86.4971, "RA_OF_ASC_NODE": 344.0126, "ARG_OF_PERICENTER": 176.3616, "MEAN_ANOMALY": 183.76, "EPHEMERIS_TYPE": 0, "CLASSIFICATION_TYPE": "U", "NORAD_CAT_ID": 66956, "ELEMENT_SET_NO": 999, "REV_AT_EPOCH": 133, "BSTAR": 1.0922436e-05, "MEAN_MOTION_DOT": 2.6e-07, "MEAN_MOTION_DDOT": 0}, "tle": {"line1": "1 66956U 25287D   25352.62166759  .00000026  00000+0  10922-4 0  9990", "line2": "2 66956  86.4971 344.0126 0007676 176.3616 183.7600 13.67770338  1332"}}, "geometry": {"type": "Point", "coordinates": [165.77138407457485, -36.24041529753311]}}, {"type": "Feature", "properties": {"norad_id": 66957, "name": "HULIANWANG DIGUI-118", "group": "last-30-days", "lat": -41.06636936261037, "lon": 166.25539231144012, "alt_km": 1010.4919310264995, "timestamp": "2025-12-20T20:38:43.174761+00:00", "meta": {"OBJECT_NAME": "HULIANWANG DIGUI-118", "OBJECT_ID": "2025-287E", "EPOCH": "2025-12-20T14:18:04.919328", "MEAN_MOTION": 13.67845038, "ECCENTRICITY": 0.00078288, "INCLINATION": 86.4951, "RA_OF_ASC_NODE": 343.2906, "ARG_OF_PERICENTER": 167.9951, "MEAN_ANOMALY": 192.1396, "EPHEMERIS_TYPE": 0, "CLASSIFICATION_TYPE": "U", "NORAD_CAT_ID": 66957, "ELEMENT_SET_NO": 999, "REV_AT_EPOCH": 160, "BSTAR": 0.00012213846, "MEAN_MOTION_DOT": 1.2e-06, "MEAN_MOTION_DDOT": 0}, "tle": {"line1": "1 66957U 25287E   25354.59589027  .00000120  00000+0  12214-3 0  9996", "line2": "2 66957  86.4951 343.2906 0007828 167.9951 192.1396 13.67845038  1601"}}, "geometry": {"type": "Point", "coordinates": [166.25539231144012, -41.06636936261037]}}]}